{
  "norad_id": 66796,
  "name": "STARLINK-35964",
  "history": [
    {
      "epoch": "2026-03-28T10:20:34.152576Z",
      "apogee_km": 483.4821541557949,
      "perigee_km": 482.4929172202401,
      "latitude_deg": 2.9468715365146148e-05,
      "longitude_deg": 12.632028746967599,
      "height_km": 482.709623660444,
      "semi_major_axis_km": 6861.124535688017,
      "eccentricity": 7.209e-05,
      "inclination_deg": 43.0052,
      "raan_deg": 353.6258,
      "arg_perigee_deg": 276.3374,
      "mean_anomaly_deg": 83.7396,
      "mean_motion_rev_day": 15.27600559
    },
    {
      "epoch": "2026-03-29T03:36:16.500672Z",
      "apogee_km": 483.9409511735057,
      "perigee_km": 481.9045886337981,
      "latitude_deg": -2.056678975517581e-05,
      "longitude_deg": 108.93680941552122,
      "height_km": 482.91107038232707,
      "semi_major_axis_km": 6861.059769903652,
      "eccentricity": 0.0001484,
      "inclination_deg": 42.9991,
      "raan_deg": 349.566,
      "arg_perigee_deg": 258.0002,
      "mean_anomaly_deg": 102.0683,
      "mean_motion_rev_day": 15.27622189
    },
    {
      "epoch": "2026-03-30T03:08:37.508352Z",
      "apogee_km": 484.15231431045686,
      "perigee_km": 481.81884652085773,
      "latitude_deg": 1.4551388933963418e-05,
      "longitude_deg": 109.34199613734589,
      "height_km": 482.52659618108066,
      "semi_major_axis_km": 6861.1225804156575,
      "eccentricity": 0.00017005,
      "inclination_deg": 43.0034,
      "raan_deg": 344.0254,
      "arg_perigee_deg": 281.6855,
      "mean_anomaly_deg": 78.3806,
      "mean_motion_rev_day": 15.27601212
    },
    {
      "epoch": "2026-03-30T09:25:15.741120Z",
      "apogee_km": 483.37624535822397,
      "perigee_km": 482.7638140187528,
      "latitude_deg": 3.893249700959136e-05,
      "longitude_deg": 13.44682022910637,
      "height_km": 482.7429222072192,
      "semi_major_axis_km": 6861.207029688488,
      "eccentricity": 4.463e-05,
      "inclination_deg": 43.0012,
      "raan_deg": 342.5473,
      "arg_perigee_deg": 289.6707,
      "mean_anomaly_deg": 70.4097,
      "mean_motion_rev_day": 15.27573009
    },
    {
      "epoch": "2026-03-30T17:16:03.109152Z",
      "apogee_km": 483.1309389120088,
      "perigee_km": 483.0009877278844,
      "latitude_deg": -8.351307132787487e-06,
      "longitude_deg": -106.41764055669171,
      "height_km": 482.8584848927252,
      "semi_major_axis_km": 6861.202963319946,
      "eccentricity": 9.47e-06,
      "inclination_deg": 42.9998,
      "raan_deg": 340.7025,
      "arg_perigee_deg": 254.7927,
      "mean_anomaly_deg": 105.2914,
      "mean_motion_rev_day": 15.27574367
    },
    {
      "epoch": "2026-03-31T01:06:50.054688Z",
      "apogee_km": 483.9451541093131,
      "perigee_km": 482.1541099508877,
      "latitude_deg": -3.009946947133062e-05,
      "longitude_deg": 133.72069112376738,
      "height_km": 482.88666125365853,
      "semi_major_axis_km": 6861.186632030101,
      "eccentricity": 0.00013052,
      "inclination_deg": 43.0038,
      "raan_deg": 338.8587,
      "arg_perigee_deg": 266.1589,
      "mean_anomaly_deg": 93.9113,
      "mean_motion_rev_day": 15.27579821
    },
    {
      "epoch": "2026-04-01T00:39:11.255904Z",
      "apogee_km": 484.10339899267,
      "perigee_km": 481.92662990456574,
      "latitude_deg": -4.265847026349022e-05,
      "longitude_deg": 134.12251918115808,
      "height_km": 482.6013645468269,
      "semi_major_axis_km": 6861.152014448618,
      "eccentricity": 0.00015863,
      "inclination_deg": 43.0015,
      "raan_deg": 333.3156,
      "arg_perigee_deg": 280.0901,
      "mean_anomaly_deg": 79.9771,
      "mean_motion_rev_day": 15.27591382
    },
    {
      "epoch": "2026-04-02T15:53:05.138592Z",
      "apogee_km": 483.745333259546,
      "perigee_km": 482.2722452585922,
      "latitude_deg": 4.558351412645183e-05,
      "longitude_deg": -105.19098222380336,
      "height_km": 482.9374828527239,
      "semi_major_axis_km": 6861.145789259069,
      "eccentricity": 0.00010735,
      "inclination_deg": 43.005,
      "raan_deg": 324.0877,
      "arg_perigee_deg": 258.1094,
      "mean_anomaly_deg": 101.9638,
      "mean_motion_rev_day": 15.27593461
    },
    {
      "epoch": "2026-04-02T22:09:42.311232Z",
      "apogee_km": 483.7952874541461,
      "perigee_km": 482.07480502783073,
      "latitude_deg": 1.7787890032554782e-05,
      "longitude_deg": 158.91841540553696,
      "height_km": 482.7997693423825,
      "semi_major_axis_km": 6861.072046240988,
      "eccentricity": 0.00012538,
      "inclination_deg": 43.0023,
      "raan_deg": 322.6098,
      "arg_perigee_deg": 264.1345,
      "mean_anomaly_deg": 95.9364,
      "mean_motion_rev_day": 15.27618089
    },
    {
      "epoch": "2026-04-03T15:25:25.906944Z",
      "apogee_km": 483.6859293998277,
      "perigee_km": 482.3356555142718,
      "latitude_deg": 1.2473963923312915e-06,
      "longitude_deg": -104.78438069096224,
      "height_km": 482.49388169957774,
      "semi_major_axis_km": 6861.14779245705,
      "eccentricity": 9.84e-05,
      "inclination_deg": 43.0004,
      "raan_deg": 318.5476,
      "arg_perigee_deg": 295.7447,
      "mean_anomaly_deg": 64.3303,
      "mean_motion_rev_day": 15.27592792
    },
    {
      "epoch": "2026-04-04T21:14:24.152928Z",
      "apogee_km": 483.65873900024053,
      "perigee_km": 482.27142415934577,
      "latitude_deg": -3.009922266135602e-05,
      "longitude_deg": 159.73028643370517,
      "height_km": 482.5673700321118,
      "semi_major_axis_km": 6861.102081579793,
      "eccentricity": 0.0001011,
      "inclination_deg": 43.0006,
      "raan_deg": 311.5295,
      "arg_perigee_deg": 284.5398,
      "mean_anomaly_deg": 75.5341,
      "mean_motion_rev_day": 15.27608058
    },
    {
      "epoch": "2026-04-05T14:30:07.967232Z",
      "apogee_km": 483.29720503725457,
      "perigee_km": 482.7771280354318,
      "latitude_deg": 1.5468651453343308e-05,
      "longitude_deg": -103.97095791860129,
      "height_km": 482.6687772603585,
      "semi_major_axis_km": 6861.174166536343,
      "eccentricity": 3.79e-05,
      "inclination_deg": 42.9969,
      "raan_deg": 307.4697,
      "arg_perigee_deg": 56.6016,
      "mean_anomaly_deg": 303.4872,
      "mean_motion_rev_day": 15.27583984
    },
    {
      "epoch": "2026-04-05T20:46:45.585696Z",
      "apogee_km": 483.49993580367754,
      "perigee_km": 482.64365694589014,
      "latitude_deg": 6.004114154074864e-06,
      "longitude_deg": 160.13709591358472,
      "height_km": 482.9850642638177,
      "semi_major_axis_km": 6861.208796374784,
      "eccentricity": 6.24e-05,
      "inclination_deg": 43.0021,
      "raan_deg": 305.9923,
      "arg_perigee_deg": 251.3284,
      "mean_anomaly_deg": 108.75,
      "mean_motion_rev_day": 15.27572419
    },
    {
      "epoch": "2026-04-05T22:20:55.024224Z",
      "apogee_km": 483.91759275571076,
      "perigee_km": 482.24304405697967,
      "latitude_deg": -2.0784545810167238e-05,
      "longitude_deg": 136.1627916408285,
      "height_km": 482.92953263996685,
      "semi_major_axis_km": 6861.217318406345,
      "eccentricity": 0.00012203,
      "inclination_deg": 43.0004,
      "raan_deg": 305.6218,
      "arg_perigee_deg": 265.0236,
      "mean_anomaly_deg": 95.0476,
      "mean_motion_rev_day": 15.27569573
    },
    {
      "epoch": "2026-04-07T19:51:27.055872Z",
      "apogee_km": 483.59000482887404,
      "perigee_km": 482.37558662503034,
      "latitude_deg": -2.7225520629054107e-05,
      "longitude_deg": 160.95263052548958,
      "height_km": 482.7961055429707,
      "semi_major_axis_km": 6861.119795726952,
      "eccentricity": 8.85e-05,
      "inclination_deg": 43.0007,
      "raan_deg": 294.9141,
      "arg_perigee_deg": 266.5084,
      "mean_anomaly_deg": 93.5666,
      "mean_motion_rev_day": 15.27602142
    },
    {
      "epoch": "2026-04-08T14:41:19.932000Z",
      "apogee_km": 483.78714124778435,
      "perigee_km": 482.2890722749735,
      "latitude_deg": -3.617625739525185e-05,
      "longitude_deg": -126.72277486245044,
      "height_km": 482.80625670149936,
      "semi_major_axis_km": 6861.175106761379,
      "eccentricity": 0.00010917,
      "inclination_deg": 43.0015,
      "raan_deg": 290.4824,
      "arg_perigee_deg": 270.6473,
      "mean_anomaly_deg": 89.4253,
      "mean_motion_rev_day": 15.2758367
    },
    {
      "epoch": "2026-04-09T20:30:18.164160Z",
      "apogee_km": 483.79948668420093,
      "perigee_km": 482.1459592409674,
      "latitude_deg": -3.526950713328331e-05,
      "longitude_deg": 137.79328159975134,
      "height_km": 482.55144465382523,
      "semi_major_axis_km": 6861.109722962584,
      "eccentricity": 0.0001205,
      "inclination_deg": 43.001,
      "raan_deg": 283.4656,
      "arg_perigee_deg": 283.8511,
      "mean_anomaly_deg": 76.2206,
      "mean_motion_rev_day": 15.27605506
    },
    {
      "epoch": "2026-04-10T12:11:51.878112Z",
      "apogee_km": 484.08963702319306,
      "perigee_km": 481.94758424155316,
      "latitude_deg": -1.2741135287931286e-05,
      "longitude_deg": -101.93324703150714,
      "height_km": 482.9709308671667,
      "semi_major_axis_km": 6861.155610632372,
      "eccentricity": 0.0001561,
      "inclination_deg": 43.0009,
      "raan_deg": 279.774,
      "arg_perigee_deg": 260.5728,
      "mean_anomaly_deg": 99.4947,
      "mean_motion_rev_day": 15.27590181
    },
    {
      "epoch": "2026-04-11T18:00:50.527584Z",
      "apogee_km": 483.8488973169997,
      "perigee_km": 482.2008462353997,
      "latitude_deg": -1.68722944143937e-05,
      "longitude_deg": 162.58146183960534,
      "height_km": 482.85208657238803,
      "semi_major_axis_km": 6861.161871776199,
      "eccentricity": 0.0001201,
      "inclination_deg": 43.0001,
      "raan_deg": 272.7576,
      "arg_perigee_deg": 266.4741,
      "mean_anomaly_deg": 93.5973,
      "mean_motion_rev_day": 15.2758809
    }
  ]
}